ID,Title,Address,City,State,Zip,Phone Num,Country
495, 31St St & Ditmars Blvd, 22-04 31st Street, Astoria, NY, 11105, 718-626-6004, USA
496, 35th Ave and 37th St, 3711 35th Avenue, Astoria, NY, 11106, 718-706-0464, USA
497, 31-44 Steinway Street, 31-44 Steinway Street, Astoria, NY, 11103, 718-274-5700, USA
5360, 215th St. & Northern Blvd, 215-29 Northern Blvd., Bayside, NY, 11361, (718) 281-4165, USA
5368, Metropolitan Ave & Wood Ave, 1385 Metropolitan Avenue, Bronx, NY, 10462, 718-319-1702, USA
5369, 225th & Kingsbridge Plaza, 50 W. 225th Street, Bronx, NY, 10463, 718-561-3749, USA
5370, 235th & Johnson Ave, 3503 Johnson Avenue, Bronx, NY, 10463, 718-543-2348, USA
5371, Eastchester Rd & Waters Pl, 1728 Eastchester Road, Bronx, NY, 10461, 718-239-4931, USA
5373, Smith St & Wyckoff St, 164 Smith Street, Brooklyn, NY, 11231, 718-422-0178, USA
5374, 514 86th St, 514 86th Street, Brooklyn, NY, 11209, 718-491-1340, USA
5375, 65th St & 18th Ave, 6423 18th Avenue, Brooklyn, NY, 11204, 718-234-7160, USA
5376, Bay Ridge Pkwy & 3rd Ave, 7419 3rd Avenue, Brooklyn, NY, 11209, 718-836-3882, USA
5377, 910 Manhattan Avenue, 910 Manhattan Avenue, Brooklyn, NY, 11222, 718-609-0467, USA
5378, Flatbush Ave Atlantic Terminal, 139 Flatbush Ave, Brooklyn, NY, 11217, 718-789-3418, USA
5379, 3rd Ave & 92nd St, 9202 Third Avenue, Brooklyn, NY, 11209, 718-492-5331, USA
5380, 1971 86th Street, 1971 86th Street, Brooklyn, NY, 11214, 718-266-1503, USA
5381, 607 Brighton Beach Ave, 607 Brighton Beach Avenue, Brooklyn, NY, 11235, 718-934-3211, USA
5382, Court St & Dean St, 167 Court Street, Brooklyn, NY, 11201, 718-222-9729, USA
5383, Court St & Joralemon, 50 Court Street, Brooklyn, NY, 10021, (718) 855-0369, USA
5384, Cropsey Ave & Hart Place, 3035 Cropsey Ave, Brooklyn, NY, 11214, 718-372-3573, USA
5385, 33-42 Hillel Place, 33-42 Hillel Place, Brooklyn, NY, 11210, 718-338-2489, USA
5386, Main St & Front St, 67 Front Street, Brooklyn, NY, 11201, 718-855-0856, USA
5388, 164 7th Avenue, 164-166 7th Avenue, Brooklyn, NY, 11215, 718-369-3098, USA
5389, 6 Metro Tech at Jay Street, 6 Metro Tech, Brooklyn, NY, 11201, 718-522-2396, USA
5418, Queens Center Mall, 90-15 Queens Boulevard, Elmhurst, NY, 11373, 718-699-7856, USA
5424, Main St & 41St Ave, 41-02 Main Street, Flushing, NY, 11354, 718-358-9355, USA
5425, Queens Blvd & 67th Rd, 10102 Queens Blvd., Forest Hills, NY, 11375, 718-459-6923, USA
5426, 107-12 Continental Avenue, 107-12 Continental Avenue, Forest Hills, NY, 11375, (718) 793-4057, USA
5427, 7000 Austin Street, 7000 Austin Street, Forest Hills, NY, 11375, 718-268-4719, USA
5429, 188th Street & 64th Ave, 61-51 188th Street, Fresh Meadows, NY, 11365, (718) 264-0658, USA
5437, Shops at Atlas Park, 8000 Cooper Avenue, Glendale, NY, 11385, 718-416-1521, USA
5451, 157-41 Cross Bay Blvd., 157-41 Cross Bay Blvd., Howard Beach, NY, 11414, 718-641-9332, USA
5462, 118-24 Queens Blvd, 118-24 Queens Blvd, Kew Gardens, NY, 11415, 718 261-4246, USA
5476, 2 Broadway, 2 Broadway, New York, NY, 10004, 212-344-4290, USA
5477, Broadway at Barclay Str, 233 Broadway, New York, NY, 10007, 212-619-1529, USA
5496, 34th btwn 7th & 8th, 1 Penn Plaza, New York, NY, 10119, (212) 760-3001, USA
5497, 100 Wall St (New World), 100 Wall Street, New York, NY, 10005, 212-809-1556, USA
5498, 100 Williams Street, 100 Williams Street, New York, NY, 10038, 212-509-9709, USA
5499, 103rd & Broadway, 2690 Broadway, New York, NY, 10025, 212-531-8204, USA
5500, 111th & Broadway, 2853 Broadway, New York, NY, 10025, 2122807269, USA
5501, 118th & Frederick Douglas Blvd., 2195 Frederick Douglas Boulevard, New York, NY, 10026, 212-662-1239, USA
5502, 56th Btwn Sixth & Seventh, 120 W. 56th Street, New York, NY, 10019, 212-262-9273, USA
5503, 125th St. btwn Adam Clayton & FDB, 201 W. 125th Street, New York, NY, 10027, 212-222-2872, USA
5504, 125th & Lenox, 77-83 West 125th Street, New York, NY, 10027, 917-492-2454, USA
5506, 1345 Ave. of the Americas Acquisiti, 1345 6th Ave, New York, NY, 10105, (212) 265-8610, USA
5507, 57th & Lex, 135 East 57th Street, New York, NY, 10022, 212-935-1866, USA
5508, Broadway Btwn 37th & 38th, 1372 Broadway, New York, NY, 10018, (212) 921-0827, USA
5509, 145th & Bradhurst, 301 W. 145th St., New York, NY, 10039, 212-690-7835, USA
5510, 14th & Sixth, 510 Sixth Avenue, New York, NY, 10011, (212) 242-5981, USA
5511, 42nd btwn 3rd & Lex, 150 E. 42nd Street, New York, NY, 10017, 212-949-4122, USA
5512, 47th & Broadway, 1585 Broadway, New York, NY, 10036, 212-541-7515, USA
5513, 15th & Ninth, 76 9th Ave, New York, NY, 10001, (646) 230-7145, USA
5514, 15th & 3rd, 145 Third Avenue, New York, NY, 10003, 212-677-7248, USA
5516, 165 Broadway - 1 Liberty, 165 Broadway, New York, NY, 10006, (212) 608-6481, USA
5517, 51st & Broadway, 1656 Broadway, New York, NY, 10019, 212-397-7124, USA
5518, 168th & Broadway, 4001 Broadway, New York, NY, 10032, 917-521-0342, USA
5519, 17th & 1st, 286 First Avenue, New York, NY, 10003, 212-353-1214, USA
5520, 195 Broadway, 195 Broadway, New York, NY, 10007, (212) 385-1104, USA
5521, 19th & 8th, 177 Eighth Avenue, New York, NY, 10011, 212 414 8786, USA
5522, 19th & Park, 240 Park Avenue South, New York, NY, 10003, 212-375-1415, USA
5523, 75th & First, 1445 First Avenue, New York, NY, 10021, 212-472-7784, USA
5524, 59th & Columbus, 2 Columbus Avenue, New York, NY, 10023, (212) 489-6757, USA
5525, 75th & Broadway, 2140 Broadway, New York, NY, 10023, 212-580-1141, USA
5526, 21st & 5th, 4 W. 21st Street, New York, NY, 10010, 646-336-6583, USA
5527, 22nd & 6th, 684 Avenue of the Americas, New York, NY, 10010, (212) 691-1948, USA
5528, 24th & 7th, 229 Seventh Avenue, New York, NY, 10011, 212-255-8750, USA
5529, 23rd & 3rd, 296-300 Third Avenue, New York, NY, 10010, (212) 598-9651, USA
5530, 23rd & Park, 304 Park Avenue South, New York, NY, 10010, (212) 475-9025, USA
5531, 23rd btwn 5th & 6th, 14 W. 23rd St, New York, NY, 10010, 212-367-2050, USA
5532, 24th & 6th, 750 6th Avenue, New York, NY, 10010, 646-230-7208, USA
5534, 29th & 5th, 261 Fifth Avenue, New York, NY, 10016, 212-779-1557, USA
5535, 27th & 6th, 776 Avenue of the Americas, New York, NY, 10001, 212-481-1856, USA
5536, 28th & 7th, 315 Seventh Avenue, New York, NY, 10001, 646-336-6462, USA
5537, 29th & Park, 424 Park Avenue South, New York, NY, 10016, 212-725-0637, USA
5538, 2nd Ave. & 9th Street, 145 2nd Avenue, New York, NY, 10003, 212-780-0027, USA
5539, 31st & 7th, 370 7th Avenue, New York, NY, 10001, (212) 967-2041, USA
5540, 31st & 6th, 875 Sixth Ave, New York, NY, 10001, 2126296540, USA
5541, 32nd & 2nd, 585 2nd Avenue, New York, NY, 10016, 212-684-1299, USA
5542, 42nd & Madison, 330 Madison Ave, New York, NY, 10017, 212-682-1880, USA
5543, 43rd & Madison, 335 Madison Avenue, New York, NY, 10017, (212) 370-3510, USA
5544, 33rd & Tenth, 450 W. 33rd Street, New York, NY, 10001, 212-563-0692, USA
5545, 33rd Street and 5th Avenue, 334 Fifth Ave., New York, NY, 10001, 212-279-2960, USA
5546, 35th & 7th, 462 7th Avenue, New York, NY, 10018, (212) 279-6432, USA
5547, 35th & 8th, 494 Eighth Ave., New York, NY, 10001, (212) 947-3860, USA
5548, 36th & Madison, 200 Madison Avenue, New York, NY, 10016, 212-684-6873, USA
5549, Park Row at Beekman St, 38 Park Row, New York, NY, 10038, 212-608-8073, USA
5550, 39th & Park, 90 Park Ave, New York, NY, 10016, 212-661-5489, USA
5551, 39th & 8th, 600 Eighth Ave., New York, NY, 10018, 212 9977341, USA
5553, 40th & Lex, 360 Lexington Avenue, New York, NY, 10017, 212-953-1662, USA
5554, 41st & 3rd, 639 3rd Avenue, New York, NY, 10017, (212) 973-1376, USA
5555, 41st & Madison, 295 Madison Avenue, New York, NY, 10017, 212-922-9078, USA
5556, 41st and Broadway, 1460 Broadway, New York, NY, 10036, (212) 869-0191, USA
5557, 42nd & 6th, 1100 Avenue of the Americas, New York, NY, 10036, (212) 398-4508, USA
5558, 42nd & 8th, 251 West 42nd Street, New York, NY, 10036, 212-398-1982, USA
5560, 42nd & Park, 125 Park Ave, New York, NY, 10017, 212-557-2718, USA
5561, 42nd & 2nd, 220 East 42nd St, New York, NY, 10017, 212-867-1264, USA
5562, 43rd & 8th, 684 Eighth Avenue, New York, NY, 10036, (212) 398-9702, USA
5563, 43rd & 9th, 593 Ninth Ave, New York, NY, 10036, 212-594-7846, USA
5564, 43rd & 3rd, 685 Third Avenue, New York, NY, 10017, 646 865 1250, USA
5565, 34th & 7th, 450 7th Avenue, New York, NY, 10017, 212-279-1122, USA
5566, 44th & Lex, 450 Lexington Avenue, New York, NY, 10017, 2126825139, USA
5567, 45th & Broadway, 1530 Broadway, New York, NY, 10036, 212-391-2079, USA
5568, 45th & Park, 230 Park Avenue, New York, NY, 10169, 212-681-9407, USA
5569, 45th St. & Sixth Ave., 1166 Avenue of the Americas, New York, NY, 10036, (212) 354-3730, USA
5571, 47th & 9th, 682 9th Avenue, New York, NY, 10036, 212-397-2288, USA
5572, 48th & 3rd, 757 Third Avenue, New York, NY, 10017, (212) 715-9884, USA
5573, 48th & Lex, 511 Lexington Avenue, New York, NY, 10017, 212-486-1964, USA
5574, 48th & Park, 280 Park Avenue, New York, NY, 10017, 212-573-9869, USA
5575, 49th & Seventh, 750 Seventh Avenue, New York, NY, 10019, (212) 974-0032, USA
5576, 49th btwn 8th & 9th, 325 W 49th St, New York, NY, 10019, (212) 765-2205, USA
5577, 49th & Madison, 425 Madison Avenue, New York, NY, 10017, 212/644/9462, USA
5578, 50th & Lex, 560 Lexington Avenue, New York, NY, 10022, 212-751-2937, USA
5579, 50th & 2nd, 943 Second Avenue, New York, NY, 10022, 212-715-0752, USA
5580, 39th & 7th, 525 7th Avenue, New York, NY, 10018, 212-869-5273, USA
5581, 52nd & Lex, 599 Lexington, New York, NY, 10022, 212-754-1864, USA
5582, 52nd & 7th, 156 W 52nd St, New York, NY, 10019, 212-581-6410, USA
5583, 52nd & 8th, 871 8th Avenue, New York, NY, 10019, 212-246-7699, USA
5584, 54th & Lex, 630 Lexington Ave, New York, NY, 10022, 212-521-8075, USA
5585, 53rd & Sixth (NE Corner), 1320 Avenue of the Americas, New York, NY, 10019, 212-969-9066, USA
5586, 545 Fifth Ave., 545 Fifth Ave., New York, NY, 10017, (212) 687-1026, USA
5588, 55 Broad Street, 55 Broad Street, New York, NY, 10004, (212) 742-2490, USA
5589, 55th & Lex, 655 Lexington Avenue, New York, NY, 10022, 212-308-5717, USA
5591, 57th & Lexington, 116 E. 57th Street, New York, NY, 10022, (212) 486-1632, USA
5592, 57th & Seventh, 142 W. 57th Street, New York, NY, 10019, (646) 710-1906, USA
5593, 57th Btwn Eighth & Ninth, 322 West 57th Street, New York, NY, 10019, (212) 399-0714, USA
5594, 58th & Eight, 4 Columbus Circle, New York, NY, 10019, 212-265-0658, USA
5595, 60th and Broadway, 1841 Broadway, New York, NY, 10023, 212-307-0162, USA
5596, 60th & First, 1102 1st Ave, New York, NY, 10021, 212-688-9118, USA
5597, 63rd & Broadway, 1889 Broadway, New York, NY, 10023, 212-245-1362, USA
5598, 6th & Waverly (Waverly Place), 378 6th Avenue, New York, NY, 10011, 212-477-2690, USA
5599, 70th & Broadway, 2045 Broadway, New York, NY, 10023, (212) 496-1551, USA
5600, Spring Street at Crosby St, 72 Spring Street, New York, NY, 10012, 212-219-2961, USA
5601, 73rd & Columbus, 267-275 Columbus Ave, New York, NY, 10023, (212) 579-7834, USA
5602, 76th & Columbus, 338 Columbus Avenue, New York, NY, 10023, 646-505-1106, USA
5603, 76th & Second, 1449 Second Avenue, New York, NY, 10021, 212-472-0653, USA
5604, 80th & York, 1515 York Avenue, New York, NY, 10021, 212-472-3581, USA
5605, 81st & Columbus, 444 Columbus Avenue, New York, NY, 10024, 212-769-2296, USA
5606, 84th & Third, 1488 Third Avenue #A, New York, NY, 10028, 212-744-7458, USA
5607, 85th & First, 1631 1st Ave, New York, NY, 10028, 212-737-6534, USA
5608, 86th & Columbus, 540 Columbus Avenue, New York, NY, 10024, 2124964163, USA
5609, 87th & Lexington, 120 EAST 87th St, New York, NY, 10128, 212-426-2580, USA
5610, 8th & 16th, 124 Eighth Avenue, New York, NY, 10011, (212) 462-2020, USA
5611, 90th & First, 400 East 90th Street, New York, NY, 10128, 212-987-0891, USA
5612, 92nd & Third, 1642 Third Avenue, New York, NY, 10128, (212) 360-0425, USA
5613, 93rd and Broadway, 2498 Broadway, New York, NY, 10025, 917-441-1643, USA
5614, 95th & Broadway, 2521 Broadway, New York, NY, 10025, (212) 316-0374, USA
5615, 96th & Madison, 1378 Madison Avenue, New York, NY, 10128, 212-534-7225, USA
5617, Allen & Delancey, 80 Delancey Street, New York, NY, 10002, 917 5341397, USA
5618, Lafayette & 8th Street, 13-25  Astor Place, New York, NY, 10003, 212-982-3753, USA
5619, State St & Pearl Streets, 1 Battery Park Plaza, New York, NY, 10004, 2124821180, USA
5620, 58th btwn 3rd & Lex, 731 Lexington Avenue, New York, NY, 10022, 212-644-0692, USA
5621, Broadway & Canal, 405 Broadway, New York, NY, 10013, 646-613-0148, USA
5622, Broadway & Grand, 471 Broadway, New York, NY, 10013, 212-219-8787, USA
5623, Broadway & Reade, 291 Broadway, New York, NY, 10007, 212 406 5310, USA
5624, Broadway & Thames, 115 Broadway, New York, NY, 10006, 212-732-9268, USA
5625, 81st & Broadway, 2252 Broadway, New York, NY, 10024, 212-721-1267, USA
5626, Broadway and Bond, 665 Broadway, New York, NY, 10012, 917-534-0799, USA
5627, 88th & Broadway, 2394 Broadway, New York, NY, 10024, 212-595-3404, USA
5628, 114th & Broadway, 2929 Broadway, New York, NY, 10027, 212-932-0300, USA
5629, Canal and Centre, 241 Canal Street, New York, NY, 10013, 212-219-2725, USA
5630, Chambers and West Broadway, 125 Chambers Street, New York, NY, 10007, 212-791-6368, USA
5631, Church Street & Murray, 110 Church Street, New York, NY, 10007, 212-513-1451, USA
5632, 67th & Columbus, 152 - 154 Columbus Avenue, New York, NY, 10023, 212-721-0470, USA
5634, 34th & Park, 3 Park Avenue, New York, NY, 10017, 212-725-9469, USA
5635, Empire State Building, 350 Fifth Avenue, New York, NY, 10001, 212-268-5471, USA
5637, Grand Central Terminal, 7800 Grand Central Station, New York, NY, 10017, 212-370-4161, USA
5638, Greenwich Avenue, 93 Greenwich Avenue, New York, NY, 10014, (212) 462-4697, USA
5639, Macy's 3rd Floor, 151 W. 34th Street, New York, NY, 10001, 2125647021, USA
5640, Houston & W. Broadway, 482 West Broadway, New York, NY, 10012, 212-254-0139, USA
5641, Hudson & 10th, 518 Hudson Street, New York, NY, 10014, 646-486-0524, USA
5642, Hudson & King, 345 Hudson St., New York, NY, 10014, 646-486-0487, USA
5643, Lafayette & Worth, 111 Worth Street, New York, NY, 10013, 212-964-8846, USA
5644, 78th & Lexington, 1117 Lexington Ave., New York, NY, 10075, 212-517-8476, USA
5645, 85th & Lexington, 1261 Lexington Avenue, New York, NY, 10028, 212-879-1764, USA
5646, Liberty & Nassau, 55 Liberty Street, New York, NY, 10005, 212-227-0372, USA
5647, Macys 35th Street Balcony, 151 W 34th Street, New York, NY, 10001, 212-564-7178, USA
5648, Macys 5th Floor - Herald Square, 151 W. 34th Street, New York, NY, 10001, 6464731237, USA
5649, Macy`s 6th Floor, 151 W. 34th Street, New York, NY, 10001, 212-268-3695, USA
5650, 44th & Madison, 340 Madison Avenue, New York, NY, 10017, 212-867-0928, USA
5651, Nassau & Fulton, 130 Fulton Street, New York, NY, 10038, 212-962-0439, USA
5652, NHL store @ 47th & Sixth, 1185 Avenue of the Americas, New York, NY, 10020, 212-730-7645, USA
5653, Water & Whitehall Streets, 3 New York Plaza, New York, NY, 10003, 212-785-1082, USA
5655, Pearl & Hanover, 110 Pearl Street, New York, NY, 10005, 212-482-6530, USA
5656, Pearl & Maiden, 80 Pine Street, New York, NY, 10005, 212-480-3970, USA
5657, Penn Station LIRR, 1 Penn Plaza Concourse Level, New York, NY, 10119, 212-736-3206, USA
5658, Penn Station by 1/2/3, 1 Penn Plaza Concourse level, New York, NY, 10119, 212-279-1238, USA
5659, Rockefeller Center Concourse, 30 Rockefeller Plaza, New York, NY, 10112, 212-586-0911, USA
5660, Rockefeller Center Subway, 30 Rockefeller Plaza, New York, NY, 10020, (212) 397-7950, USA
5661, Roosevelt Island, 455 Main Street, New York, NY, 10044, 212-371-1298, USA
5663, 7th Ave at Grove Street, 72 Grove Street, New York, NY, 10014, 646-486-2216, USA
5664, 58th & Sixth, 1411 Sixth Avenue, New York, NY, 10019, 212-664-1305, USA
5665, SONY, 550 Madison Avenue, New York, NY, 10022, (212) 833-6102, USA
5666, Spring and Varick, 150 Varick Street, New York, NY, 10013, 646-230-9816, USA
5667, 60th & Third, 1021 Third Avenue, New York, NY, 10021, 212-486-6764, USA
5668, 66th & Third, 1128 Third Avenue, New York, NY, 10021, 212-472-6535, USA
5669, Trump Tower @ 57th & Fifth, 725 5th Avenue, New York, NY, 10022, 212-421-7154, USA
5670, Union Square East, 10 Union Square East, New York, NY, 10003, (212) 982-8426, USA
5671, 56th & Sixth, 1380 Sixth Avenue, New York, NY, 10019, 212-977-1382, USA
5672, 181st & Fort Washington, 803 W 181st St, New York, NY, 10033, 212-927-4272, USA
5673, West 23rd and 8th, 300 W 23rd St., New York, NY, 10011, 646-638-1571, USA
5674, 43rd & Broadway, 1500 Broadway, New York, NY, 10019, 212-221-7515, USA
5675, 55th & Seventh, 870 7th Avenue, New York, NY, 10019, 212-586-2142, USA
5676, 49th & 8th, 825 Eighth Avenue, New York, NY, 10019, 212 307 1421, USA
5680, 35th & 5th, 373 5th Avenue, New York, NY, 10016, 212-213-5363, USA
5681, 47th & 8th, 770 Eighth Ave, New York, NY, 10036, 212-830-9002, USA
5682, 51st btwn Park & Madison, 45 E. 51st Street, New York, NY, 10022, 212-688-8834, USA
5724, Forest & Bard, 480 Forest Ave, Staten Island, NY, 10310, 718-273-5984, USA
5725, 2530 Hylan Blvd, 2530 Hylan Blvd, Staten Island, NY, 10306, 718-979-8608, USA
5726, 2505 Richmond Avenue, 2505 Richmond Avenue, Staten Island, NY, 10314, (718) 494-4451, USA
5727, Staten Island Mall, 2655 Richmond Avenue, Staten Island, NY, 10314, 718-477-5010, USA
5728, Victory Blvd & Bradley Ave, 2070 Victory Blvd, Staten Island, NY, 10314, 718-982-0167, USA
5730, 46-09 Queens Blvd, 46-09 Queens Blvd., Sunnyside, NY, 11104, 718-472-5215, USA
5752, 138-11 20th Avenue, 138-11 20th Avenue, Whitestone, NY, 11356, 718-539-4072, USA
5756, Tower Square Shopping Center, 51-06 Northern Blvd, Woodside, NY, 11354, 718-424-3716, USA
8159, 254-41 Horace Harding Expressway, 254-41 Horace Harding Expressway, Little Neck, NY, 11362, 718-428-2489, USA
12890, 575 Fifth Avenue (Relocation), 575 Fifth Avenue, New York, NY, 10036, 212-490-3189, USA
12961, 78-25 37th Avenue, 78-25 37th Avenue, Jackson Heights, NY, 11372, 718-457-0875, USA
12988, 96th & Lexington, 1491 Lexington Avenue, New York, NY, 10029, 212-369-0313, USA
13022, 31-01 Broadway, 31-01 Broadway, Astoria, NY, 11106, 718-777-1305, USA
13047, 43rd & Sixth, 1101 - 1109 Avenue of the Americas, New York, NY, 10036, 212-382-3917, USA
13052, 8th Ave just south of 14th St, 122 Greenwich Avenue, New York, NY, 10011, 212-366-4672, USA
13065, 69th & First, 1281 First Avenue, New York, NY, 10021, 212-472-1312, USA
13112, W Broadway & Leonard Street, 180 West Broadway, New York, NY, 10013, 2123437402, USA
13138, 36th & 6th, 977 Avenue of the Americas, New York, NY, 10018, 212-695-2915, USA
13142, 26th & Broadway, 1140 Broadway, New York, NY, 10010, 2122136519, USA
13149, 3rd St & First Avenue, 49 -1/2 First Avenue, New York, NY, 10003, 2127771752, USA
13191, 134 Montague Street, 134 Montague Street, Brooklyn, NY, 11201, 7182430455, USA
13215, 100th & Columbus, 805 Columbus Avenue, New York, NY, 10025, 2122226582, USA
13221, 348 Fulton Street, 348 Fulton Street, Brooklyn, NY, 11201, 718 4881719, USA
13271, Macy's 2nd Floor, 151 W. 34th Street, New York, NY, 10001, 2122390342, USA
13275, 25th & Lex, 50 Lexington Avenue, New York, NY, 10010, 212 2542794, USA
13276, 13th & 1st, 219 First Avenue, New York, NY, 10003, 212 2540358, USA
13285, 53rd & Sixth (SW Corner), 1301 Avenue of the Americas, New York, NY, 10019, 212 9740902, USA
13288, 52nd Btwn Fifth & Sixth, 1290 Sixth Avenue, New York, NY, 10104, 2129774861, USA
13308, John & Water Streets, 135 John Street, New York, NY, 10038, 2123440894, USA
13310, 58th Btwn Madison & Fifth, 600 Madison Avenue, New York, NY, 10022, 212 7591569, USA
13332, 42nd & 9th, 350 West 42nd Street, New York, NY, 10036, 2122444176, USA
13346, Barclays Center, 620 Atlantic Avenue, Brooklyn, NY, 11217, 718 2300859, USA
13414, Manhattan Mall 1st Floor, 100 W 33rd St, New York, NY, 10001, 2126954260, USA
13445, World Financial Center-building 1, Two World Financial Center, New York, NY, 10006,, USA
13446, Queens Blvd & Broadway, 86-51 Broadway, Elmurst, NY, 11373, 7185652021, USA
13452, 28th & 3rd, 200 E 28th St, New York, NY, 10016, 212-481-4690, USA
13494, 164 Park Place, 164 Park Place, Brooklyn, NY, 11217, 718-623-9419, USA
13512, 63rd & Lexington, 822 Lexington Avenue, New York, NY, 10065, 212-572-0984, USA
13513, 106 Page Avenue, 106 Page Avenue, Staten Island, NY, 10309, 718-356-1090, USA
13537, Port Authority South Wing, 625 Eighth Avenue, New York, NY, 10018, 212-273-9613, USA
13592, 99 Wall Street, 99 Wall St., New York, NY, 10005, 212-487-1906, USA
13632, Macy's Mezzanine, 151 W 34th St, New York, NY, 10001, 212-239-6524, USA
13675, 53rd & Madison, 515 Madison Avenue, New York, NY, 10022, 212-371-3758, USA
13678, 395 Flatbush Ave Extension, 395 Flatbush Ave Extension, Brooklyn, NY, 11201, 718-858-8070, USA
13690, 1417 Kings Highway, 1417 Kings Highway, Brooklyn, NY, 11229, 718-627-1016, USA
13736, 57th & Eighth, 250 W 57th St, New York, NY, 10107, 212-586-0940, USA
13737, 23rd & 1st, 400 E 23rd st, New York, NY, 10010, 212-673-4213, USA
13778, Broadway & Dyckman, 4761 Broadway, New York, NY, 10040, 212-304-3632, USA
13785, 99th & Broadway, 2621 Broadway, New York, NY, 10025, 212-222-3972, USA
13867, UNIQLO @ 53rd & Fifth, 666 Fifth Avenue, New York, NY, 10103, 212-956-2795, USA
13870, 87th & Third, 1542 Third Avenue, New York, NY, 10128, 212-369-2949, USA
13873, 43rd & Lex, 425 Lexington, New York, NY, 10166, 212-922-3589, USA
13905, 49th & Park, 280 Park Avenue, New York, NY, 10017, 212-682-2586, USA
13908, 60 Wall St, 60 Wall St, New York, NY, 10005, 347-461-4068, USA
13960, 6th Ave at Walker Street, 32 Avenue of the Americas, New York, NY, 10013, 212-966-0984, USA
13970, Fordham Plaza, 440 East Fordham Road, Bronx, NY, 10458, (718)2204920, USA
14000, Union Ave & Ainslie St, 405-409 Union Avenue, Brooklyn, NY, 11211, 718-384-6936, USA
14004, Astoria Blvd & 31st St, 30-18 Astoria Blvd, Astoria, NY, 11102, 718-278-1518, USA
14031, 239 Bleecker St, 239 Bleecker St, New York, NY, 10014, 212-206-1092, USA
14100, Kings Plaza Mall, 5296 Kings Plaza, Brooklyn, NY, 11234, 718-253-1825, USA
14118, Franklin Ave & Eastern Pkwy, 341 Eastern Pkwy, Brooklyn, NY, 11238, 718-778-0140, USA
14230, 132-40 Metropolitan Ave, 132-40 Metropolitan Ave, Richmond Hill, NY, 11415, 718-262-8691, USA
14237, 154 N Seventh St, 154 N Seventh St, Brooklyn, NY, 11211, 718-384-0152, USA
14253, 45th & 5th, 2 West 45th St, New York, NY, 10036, 212-869-0619, USA
14254, Caesar's Bay Shopping Center, 8973 Bay Parkway, Brooklyn, NY, 11214, 718-265-1069, USA
14276, 3805 Main St, 3805 Main St, Flushing, NY, 11354, 718-445-0354, USA
14358, Water St @ Broad (inside), 1 New York Plaza, New York, NY, 10004, 212-785-8409, USA
14375, 57th & Tenth, 475 West 57th st, New York, NY, 10019, 212-247-5489, USA
14458, 53rd & 3rd, 875 Third Avenue, New York, NY, 10022, 6464774945, USA
14469, 14 Wall St, 14 Wall St, New York, NY, 10005, 646-596-6331, USA
14471, 80th & Second, 245 East 80th St, New York, NY, 10075, 212-472-7972, USA
14481, 394 Myrtle Ave, 394 Myrtle Ave, Brooklyn, NY, 11205, 3475870422, USA
14482, Gold St & Johnson Street, 309 Gold St, Brooklyn, NY, 11201, 3479972633, USA
14501, 54th and Broadway, 1700 Broadway, New York, NY, 10019, 2122450761, USA
14535, 32nd btwn 6th & 7th, 11 Penn Plaza, New York, NY, 10001, 646-599-3512, USA
14542, 110th & Manhattan, 240 Manhattan Ave, New York, NY, 10026, 347-637-0214, USA
14569, 45th btwn Lex & 3rd, 2 Grand Central Tower, New York, NY, 10017, 6466781753, USA
14576, 230th & Broadway, 171 W 230th St, Bronx, NY, 10463, 646-455-9846, USA
14652, 161st & Morris Ave, 260 East 161st Street, Bronx, NY, 10451, 6468599582, USA
14692, 95-17 63rd Drive, 95-17 63rd Drive, Rego Park, NY, 11374, 347-757-0261, USA
14693, Union Square West, 25 Union Square West, New York, NY, 10003, 6463366945, USA
14694, 329 Wyckoff Ave., 329 Wyckoff Ave., Ridgewood, NY, 11385, 347-668-5736, USA
14730, 33rd btwn 5th & 6th, 350 Fifth Avenue, New York, NY, 10001, 2125649141, USA
14816, 26th between 10th and 11th, 525 West 26th St, New York, NY, 10001, 347-387-7428, USA
14823, 40th btwn Madison & 5th, 5 East 40th st, New York, NY, 10016, 6468877285, USA
14857, 6th between 39th and 40th, 1040 Sixth Avenue, New York, NY, 10018, 3479783853, USA
14921, 53rd Inside Park Ave Plaza, 55 East 53nd Street, New York, NY, 10022, 2127507140, USA
14922, 89th Ave & Sutphin Blvd., 8900 Sutphin Blvd., Queens, NY, 11435, 3472331463, USA
14928, Flatbush Ave & Kings Hwy, 1927 Flatbush Ave, Brooklyn, NY, 11234, 3475330430, USA
14959, 92-77 Queens Blvd, 92-77 Queens Blvd, Rego Park, NY, 11374, 3479972496, USA
14987, 46th between 6th and 5th, 55 West 46th st, New York, NY, 10036, 646.647.5558, USA
14990, 222 Broadway, 222 Broadway, New York, NY, 10007, 6466476873, USA
14995, Columbus Circle Subway, 1000 S Eighth Avenue, New York, NY, 10019, 6466529813, USA
15029, 63rd & 3rd Ave, 1077 3rd Avenue, New York, NY, 10065, 2127592940, USA
15129, 66th and Amsterdam, 141 Amsterdam Ave, New York, NY, 10023, 6462768254, USA